AEROCUBE 4.5B           
1 38768U 12048L   24366.79233580  .00199707  00000+0  21886-2 0  9994
2 38768  64.6437 295.8758 0058234 305.5741  53.9983 15.60271200291828
ZACUBE-1 (TSHEPISOSAT)  
1 39417U 13066B   24366.85670806  .00012228  00000+0  11367-2 0  9995
2 39417  97.7607 319.2531 0045169 223.8959 135.8669 14.93714349601043
BRITE-CA1 (TORONTO)     
1 40020U 14033L   24366.81738212  .00005121  00000+0  80422-3 0  9997
2 40020  97.9021 137.5091 0081266 179.8689 180.2553 14.70809683563906
QB50P2                  
1 40032U 14033Y   24366.83455882  .00018397  00000+0  13245-2 0  9998
2 40032  98.0264 325.4761 0009018 168.2118 191.9320 15.04226241572324
PERSEUS-M2              
1 40037U 14033AD  24366.88036011  .00005935  00000+0  58318-3 0  9992
2 40037  97.9430 298.7630 0011128 262.7127  97.2827 14.92491894571293
AEROCUBE 6A             
1 40045U 14033AM  24366.91004643  .00015572  00000+0  16390-2 0  9992
2 40045  97.6762 173.4310 0046030 351.4054   8.6370 14.88680050567154
CANX-4                  
1 40055U 14034C   24366.64405022  .00004647  00000+0  62925-3 0  9997
2 40055  98.3760 209.6642 0012028 281.8535  78.1326 14.79437493565737
CANX-5                  
1 40056U 14034D   24366.85073936  .00004750  00000+0  64282-3 0  9999
2 40056  98.3764 209.8931 0012039 281.3989  78.5868 14.79451101556574
AEROCUBE 5C             
1 40965U 15058B   24366.87474220  .00013896  00000+0  11644-2 0  9992
2 40965  64.7696 113.2492 0184947 249.2149 108.9062 14.86257925286382
SINOD-D 1               
1 40968U 15058E   24366.59299824  .00018637  00000+0  15037-2 0  9997
2 40968  64.7772 119.1796 0174513 243.9381 114.3677 14.88735088 37154
BISONSAT                
1 40974U 15058L   24366.59387521  .00031514  00000+0  20057-2 0  9993
2 40974  64.7666  75.6226 0150932 245.9811 112.5446 14.99650723 35275
SNAP-3 JIMI             
1 40975U 15058M   24366.86240945  .00023812  00000+0  17478-2 0  9997
2 40975  64.7690  93.5714 0167748 246.9146 111.4209 14.92817304 34478
AEROCUBE 8D             
1 41852U 16067E   24366.97087458  .00019303  00000+0  10781-2 0  9993
2 41852  98.1099 187.8853 0004699 147.5362 212.6157 15.13563753445257
SPACEBEE-6              
1 43818U 18099BN  25001.18410433  .01206572  00000+0  42928-2 0  9992
2 43818  97.4973  82.2169 0007754 297.5781  62.4701 15.86497495333406
SONATE                  
1 44400U 19038Q   25001.07748163  .00079927  00000+0  12865-2 0  9994
2 44400  97.7116  12.4352 0013798 109.9736 250.3003 15.52589744304577
M2 PATHFINDER           
1 45727U 20037E   24366.44010124  .00009096  00000+0  73378-3 0  9998
2 45727  97.7772 182.3437 0011662 161.3691 198.7961 15.00051406245483
NETSAT-3                
1 46505U 20068V   24366.66041272  .00027264  00000+0  11768-2 0  9990
2 46505  97.8283 329.7400 0010117  57.3725 302.8485 15.22447064234120
SITRO-AIS 9 (SHCHUKIN)  
1 57201U 23091AM  24366.95560584  .00028911  00000+0  14107-2 0  9998
2 57201  97.5856  59.7611 0011379 143.4400 216.7613 15.18193701 83488
SITRO-AIS 36            
1 59059U 24039J   25001.17786991  .00108797  00000+0  19045-2 0  9994
2 59059  97.4101 330.5887 0007687 208.2570 151.8266 15.50191520 47018
GRBBETA                 
1 60237U 24128C   25001.17290052  .00013391  00000+0  10683-2 0  9995
2 60237  61.9938 274.3611 0033663  19.3577 340.8782 15.00156150 26265
ROBUSTA-3A (MEDITERRAN*)
1 60243U 24128J   24365.75373882  .00021396  00000+0  16749-2 0  9994
2 60243  61.9910 279.6135 0031607   9.7768 350.3930 15.00669781 26059
